CCSDS_OMM_VERS = 2.0
CREATION_DATE  = 
ORIGINATOR     = 

OBJECT_NAME    = QIANFAN-93
OBJECT_ID      = 2025-233C
CENTER_NAME    = EARTH
REF_FRAME      = TEME
TIME_SYSTEM    = UTC
MEAN_ELEMENT_THEORY = SGP/SGP4

EPOCH          = 2025-11-14T13:12:39.036384
MEAN_MOTION    = 14.22885735
ECCENTRICITY   = .0016371
INCLINATION    = 88.9960
RA_OF_ASC_NODE = 65.2768
ARG_OF_PERICENTER = 124.8109
MEAN_ANOMALY   = 235.4626

EPHEMERIS_TYPE = 0
CLASSIFICATION_TYPE = U
NORAD_CAT_ID   = 66035
ELEMENT_SET_NO = 999
REV_AT_EPOCH   = 402
BSTAR          = .53524E-3
MEAN_MOTION_DOT = .1218E-4
MEAN_MOTION_DDOT = 0

CCSDS_OMM_VERS = 2.0
CREATION_DATE  = 
ORIGINATOR     = 

OBJECT_NAME    = QIANFAN-94
OBJECT_ID      = 2025-233D
CENTER_NAME    = EARTH
REF_FRAME      = TEME
TIME_SYSTEM    = UTC
MEAN_ELEMENT_THEORY = SGP/SGP4

EPOCH          = 2025-11-14T14:55:24.485088
MEAN_MOTION    = 14.22350782
ECCENTRICITY   = .001605
INCLINATION    = 88.9960
RA_OF_ASC_NODE = 65.2692
ARG_OF_PERICENTER = 122.2945
MEAN_ANOMALY   = 237.9803

EPHEMERIS_TYPE = 0
CLASSIFICATION_TYPE = U
NORAD_CAT_ID   = 66036
ELEMENT_SET_NO = 999
REV_AT_EPOCH   = 403
BSTAR          = .49238E-3
MEAN_MOTION_DOT = .111E-4
MEAN_MOTION_DDOT = 0

CCSDS_OMM_VERS = 2.0
CREATION_DATE  = 
ORIGINATOR     = 

OBJECT_NAME    = QIANFAN-95
OBJECT_ID      = 2025-233E
CENTER_NAME    = EARTH
REF_FRAME      = TEME
TIME_SYSTEM    = UTC
MEAN_ELEMENT_THEORY = SGP/SGP4

EPOCH          = 2025-11-14T18:11:04.579296
MEAN_MOTION    = 14.26176385
ECCENTRICITY   = .0016176
INCLINATION    = 88.9960
RA_OF_ASC_NODE = 65.2521
ARG_OF_PERICENTER = 124.0050
MEAN_ANOMALY   = 236.2683

EPHEMERIS_TYPE = 0
CLASSIFICATION_TYPE = U
NORAD_CAT_ID   = 66037
ELEMENT_SET_NO = 999
REV_AT_EPOCH   = 405
BSTAR          = .55622E-3
MEAN_MOTION_DOT = .1347E-4
MEAN_MOTION_DDOT = 0

CCSDS_OMM_VERS = 2.0
CREATION_DATE  = 
ORIGINATOR     = 

OBJECT_NAME    = QIANFAN-96
OBJECT_ID      = 2025-233F
CENTER_NAME    = EARTH
REF_FRAME      = TEME
TIME_SYSTEM    = UTC
MEAN_ELEMENT_THEORY = SGP/SGP4

EPOCH          = 2025-11-14T13:13:21.883872
MEAN_MOTION    = 14.22262821
ECCENTRICITY   = .001669
INCLINATION    = 88.9959
RA_OF_ASC_NODE = 65.2770
ARG_OF_PERICENTER = 125.3092
MEAN_ANOMALY   = 234.9663

EPHEMERIS_TYPE = 0
CLASSIFICATION_TYPE = U
NORAD_CAT_ID   = 66038
ELEMENT_SET_NO = 999
REV_AT_EPOCH   = 402
BSTAR          = .42982E-3
MEAN_MOTION_DOT = .97E-5
MEAN_MOTION_DDOT = 0

CCSDS_OMM_VERS = 2.0
CREATION_DATE  = 
ORIGINATOR     = 

OBJECT_NAME    = QIANFAN-97
OBJECT_ID      = 2025-233G
CENTER_NAME    = EARTH
REF_FRAME      = TEME
TIME_SYSTEM    = UTC
MEAN_ELEMENT_THEORY = SGP/SGP4

EPOCH          = 2025-11-14T16:34:24.199968
MEAN_MOTION    = 14.22808286
ECCENTRICITY   = .0016524
INCLINATION    = 88.9959
RA_OF_ASC_NODE = 65.2606
ARG_OF_PERICENTER = 124.7700
MEAN_ANOMALY   = 235.5050

EPHEMERIS_TYPE = 0
CLASSIFICATION_TYPE = U
NORAD_CAT_ID   = 66039
ELEMENT_SET_NO = 999
REV_AT_EPOCH   = 404
BSTAR          = .48377E-3
MEAN_MOTION_DOT = .1101E-4
MEAN_MOTION_DDOT = 0

CCSDS_OMM_VERS = 2.0
CREATION_DATE  = 
ORIGINATOR     = 

OBJECT_NAME    = QIANFAN-98
OBJECT_ID      = 2025-233H
CENTER_NAME    = EARTH
REF_FRAME      = TEME
TIME_SYSTEM    = UTC
MEAN_ELEMENT_THEORY = SGP/SGP4

EPOCH          = 2025-11-14T14:47:50.152416
MEAN_MOTION    = 14.26206742
ECCENTRICITY   = .0016023
INCLINATION    = 88.9960
RA_OF_ASC_NODE = 65.2683
ARG_OF_PERICENTER = 124.5436
MEAN_ANOMALY   = 235.7272

EPHEMERIS_TYPE = 0
CLASSIFICATION_TYPE = U
NORAD_CAT_ID   = 66040
ELEMENT_SET_NO = 999
REV_AT_EPOCH   = 403
BSTAR          = .55153E-3
MEAN_MOTION_DOT = .1337E-4
MEAN_MOTION_DDOT = 0

CCSDS_OMM_VERS = 2.0
CREATION_DATE  = 
ORIGINATOR     = 

OBJECT_NAME    = QIANFAN-99
OBJECT_ID      = 2025-233J
CENTER_NAME    = EARTH
REF_FRAME      = TEME
TIME_SYSTEM    = UTC
MEAN_ELEMENT_THEORY = SGP/SGP4

EPOCH          = 2025-11-14T14:52:55.070976
MEAN_MOTION    = 14.22835989
ECCENTRICITY   = .0016136
INCLINATION    = 88.9961
RA_OF_ASC_NODE = 65.2687
ARG_OF_PERICENTER = 122.9188
MEAN_ANOMALY   = 237.3559

EPHEMERIS_TYPE = 0
CLASSIFICATION_TYPE = U
NORAD_CAT_ID   = 66041
ELEMENT_SET_NO = 999
REV_AT_EPOCH   = 403
BSTAR          = .48335E-3
MEAN_MOTION_DOT = .11E-4
MEAN_MOTION_DDOT = 0

CCSDS_OMM_VERS = 2.0
CREATION_DATE  = 
ORIGINATOR     = 

OBJECT_NAME    = QIANFAN-100
OBJECT_ID      = 2025-233K
CENTER_NAME    = EARTH
REF_FRAME      = TEME
TIME_SYSTEM    = UTC
MEAN_ELEMENT_THEORY = SGP/SGP4

EPOCH          = 2025-11-14T14:47:14.214336
MEAN_MOTION    = 14.26237761
ECCENTRICITY   = .0016622
INCLINATION    = 88.9960
RA_OF_ASC_NODE = 65.2682
ARG_OF_PERICENTER = 125.1842
MEAN_ANOMALY   = 235.0911

EPHEMERIS_TYPE = 0
CLASSIFICATION_TYPE = U
NORAD_CAT_ID   = 66042
ELEMENT_SET_NO = 999
REV_AT_EPOCH   = 403
BSTAR          = .55129E-3
MEAN_MOTION_DOT = .1337E-4
MEAN_MOTION_DDOT = 0

CCSDS_OMM_VERS = 2.0
CREATION_DATE  = 
ORIGINATOR     = 

OBJECT_NAME    = QIANFAN-101
OBJECT_ID      = 2025-233L
CENTER_NAME    = EARTH
REF_FRAME      = TEME
TIME_SYSTEM    = UTC
MEAN_ELEMENT_THEORY = SGP/SGP4

EPOCH          = 2025-11-14T18:01:38.939232
MEAN_MOTION    = 14.26647586
ECCENTRICITY   = .0016652
INCLINATION    = 88.9961
RA_OF_ASC_NODE = 65.2512
ARG_OF_PERICENTER = 122.9142
MEAN_ANOMALY   = 237.3656

EPHEMERIS_TYPE = 0
CLASSIFICATION_TYPE = U
NORAD_CAT_ID   = 66043
ELEMENT_SET_NO = 999
REV_AT_EPOCH   = 405
BSTAR          = .27834E-3
MEAN_MOTION_DOT = .688E-5
MEAN_MOTION_DDOT = 0

CCSDS_OMM_VERS = 2.0
CREATION_DATE  = 
ORIGINATOR     = 

OBJECT_NAME    = QIANFAN-102
OBJECT_ID      = 2025-233M
CENTER_NAME    = EARTH
REF_FRAME      = TEME
TIME_SYSTEM    = UTC
MEAN_ELEMENT_THEORY = SGP/SGP4

EPOCH          = 2025-11-14T13:08:31.501248
MEAN_MOTION    = 14.23307749
ECCENTRICITY   = .0017184
INCLINATION    = 88.9959
RA_OF_ASC_NODE = 65.2762
ARG_OF_PERICENTER = 125.3110
MEAN_ANOMALY   = 234.9692

EPHEMERIS_TYPE = 0
CLASSIFICATION_TYPE = U
NORAD_CAT_ID   = 66044
ELEMENT_SET_NO = 999
REV_AT_EPOCH   = 402
BSTAR          = .55148E-3
MEAN_MOTION_DOT = .1265E-4
MEAN_MOTION_DDOT = 0

CCSDS_OMM_VERS = 2.0
CREATION_DATE  = 
ORIGINATOR     = 

OBJECT_NAME    = QIANFAN-103
OBJECT_ID      = 2025-233N
CENTER_NAME    = EARTH
REF_FRAME      = TEME
TIME_SYSTEM    = UTC
MEAN_ELEMENT_THEORY = SGP/SGP4

EPOCH          = 2025-11-14T14:51:46.778688
MEAN_MOTION    = 14.22711792
ECCENTRICITY   = .0016367
INCLINATION    = 88.9960
RA_OF_ASC_NODE = 65.2690
ARG_OF_PERICENTER = 122.8587
MEAN_ANOMALY   = 237.4183

EPHEMERIS_TYPE = 0
CLASSIFICATION_TYPE = U
NORAD_CAT_ID   = 66045
ELEMENT_SET_NO = 999
REV_AT_EPOCH   = 403
BSTAR          = .43763E-3
MEAN_MOTION_DOT = .995E-5
MEAN_MOTION_DDOT = 0

CCSDS_OMM_VERS = 2.0
CREATION_DATE  = 
ORIGINATOR     = 

OBJECT_NAME    = QIANFAN-104
OBJECT_ID      = 2025-233P
CENTER_NAME    = EARTH
REF_FRAME      = TEME
TIME_SYSTEM    = UTC
MEAN_ELEMENT_THEORY = SGP/SGP4

EPOCH          = 2025-11-14T13:07:26.798016
MEAN_MOTION    = 14.23254188
ECCENTRICITY   = .0016527
INCLINATION    = 88.9960
RA_OF_ASC_NODE = 65.2770
ARG_OF_PERICENTER = 126.2648
MEAN_ANOMALY   = 234.0074

EPHEMERIS_TYPE = 0
CLASSIFICATION_TYPE = U
NORAD_CAT_ID   = 66046
ELEMENT_SET_NO = 999
REV_AT_EPOCH   = 402
BSTAR          = .54229E-3
MEAN_MOTION_DOT = .1243E-4
MEAN_MOTION_DDOT = 0

CCSDS_OMM_VERS = 2.0
CREATION_DATE  = 
ORIGINATOR     = 

OBJECT_NAME    = QIANFAN-105
OBJECT_ID      = 2025-233Q
CENTER_NAME    = EARTH
REF_FRAME      = TEME
TIME_SYSTEM    = UTC
MEAN_ELEMENT_THEORY = SGP/SGP4

EPOCH          = 2025-11-14T14:49:14.533248
MEAN_MOTION    = 14.23418916
ECCENTRICITY   = .001653
INCLINATION    = 88.9960
RA_OF_ASC_NODE = 65.2684
ARG_OF_PERICENTER = 125.0783
MEAN_ANOMALY   = 235.1962

EPHEMERIS_TYPE = 0
CLASSIFICATION_TYPE = U
NORAD_CAT_ID   = 66047
ELEMENT_SET_NO = 999
REV_AT_EPOCH   = 403
BSTAR          = .23849E-3
MEAN_MOTION_DOT = .556E-5
MEAN_MOTION_DDOT = 0

CCSDS_OMM_VERS = 2.0
CREATION_DATE  = 
ORIGINATOR     = 

OBJECT_NAME    = QIANFAN-106
OBJECT_ID      = 2025-233R
CENTER_NAME    = EARTH
REF_FRAME      = TEME
TIME_SYSTEM    = UTC
MEAN_ELEMENT_THEORY = SGP/SGP4

EPOCH          = 2025-11-14T16:30:05.513184
MEAN_MOTION    = 14.23456271
ECCENTRICITY   = .001631
INCLINATION    = 88.9959
RA_OF_ASC_NODE = 65.2605
ARG_OF_PERICENTER = 124.4392
MEAN_ANOMALY   = 235.8344

EPHEMERIS_TYPE = 0
CLASSIFICATION_TYPE = U
NORAD_CAT_ID   = 66048
ELEMENT_SET_NO = 999
REV_AT_EPOCH   = 404
BSTAR          = .50793E-3
MEAN_MOTION_DOT = .1169E-4
MEAN_MOTION_DDOT = 0

CCSDS_OMM_VERS = 2.0
CREATION_DATE  = 
ORIGINATOR     = 

OBJECT_NAME    = QIANFAN-107
OBJECT_ID      = 2025-233S
CENTER_NAME    = EARTH
REF_FRAME      = TEME
TIME_SYSTEM    = UTC
MEAN_ELEMENT_THEORY = SGP/SGP4

EPOCH          = 2025-11-14T13:06:21.725856
MEAN_MOTION    = 14.23243507
ECCENTRICITY   = .0017411
INCLINATION    = 88.9960
RA_OF_ASC_NODE = 65.2761
ARG_OF_PERICENTER = 124.6521
MEAN_ANOMALY   = 235.6316

EPHEMERIS_TYPE = 0
CLASSIFICATION_TYPE = U
NORAD_CAT_ID   = 66049
ELEMENT_SET_NO = 999
REV_AT_EPOCH   = 402
BSTAR          = .52364E-3
MEAN_MOTION_DOT = .12E-4
MEAN_MOTION_DDOT = 0

